{
  "type": "FeatureCollection",
  "features": [
    {
      "type": "Feature",
      "properties": {
        "norad_id": 66052,
        "name": "HRC MONOBLOCK CAMERA",
        "group": "stations",
        "lat": 49.28153102999042,
        "lon": -134.43769572301707,
        "alt_km": 399.1361123569104,
        "timestamp": "2025-12-09T07:41:31.989757+00:00",
        "meta_object_name": "HRC MONOBLOCK CAMERA",
        "meta_object_id": "1998-067XR",
        "meta_epoch": "2025-12-08T22:06:29.067264",
        "meta_mean_motion": 15.53741762,
        "meta_eccentricity": 0.00038647,
        "meta_inclination": 51.6287,
        "meta_ra_of_asc_node": 160.5417,
        "meta_arg_of_pericenter": 168.2294,
        "meta_mean_anomaly": 191.8787,
        "meta_ephemeris_type": 0,
        "meta_classification_type": "U",
        "meta_norad_cat_id": 66052,
        "meta_element_set_no": 999,
        "meta_rev_at_epoch": 824,
        "meta_bstar": 0.00062683821,
        "meta_mean_motion_dot": 0.00040654,
        "meta_mean_motion_ddot": 0,
        "tle_line1": "1 66052U 98067XR  25342.92116976  .00040654  00000+0  62684-3 0  9993",
        "tle_line2": "2 66052  51.6287 160.5417 0003864 168.2294 191.8787 15.53741762  8243"
      },
      "geometry": {
        "type": "Point",
        "coordinates": [
          -134.43769572301707,
          49.28153102999042
        ]
      }
    },
    {
      "type": "Feature",
      "properties": {
        "norad_id": 66174,
        "name": "HTV-X1",
        "group": "stations",
        "lat": 17.963447992856015,
        "lon": 174.29289432725588,
        "alt_km": 418.6407567732467,
        "timestamp": "2025-12-09T07:41:31.989767+00:00",
        "meta_object_name": "HTV-X1",
        "meta_object_id": "2025-241A",
        "meta_epoch": "2025-12-08T20:45:25.501536",
        "meta_mean_motion": 15.49428834,
        "meta_eccentricity": 0.00033811,
        "meta_inclination": 51.6308,
        "meta_ra_of_asc_node": 161.6653,
        "meta_arg_of_pericenter": 221.9847,
        "meta_mean_anomaly": 138.0883,
        "meta_ephemeris_type": 0,
        "meta_classification_type": "U",
        "meta_norad_cat_id": 66174,
        "meta_element_set_no": 999,
        "meta_rev_at_epoch": 51,
        "meta_bstar": 0.00022803662,
        "meta_mean_motion_dot": 0.00012323,
        "meta_mean_motion_ddot": 0,
        "tle_line1": "1 66174U 25241A   25342.86487849  .00012323  00000+0  22804-3 0  9997",
        "tle_line2": "2 66174  51.6308 161.6653 0003381 221.9847 138.0883 15.49428834   510"
      },
      "geometry": {
        "type": "Point",
        "coordinates": [
          174.29289432725588,
          17.963447992856015
        ]
      }
    },
    {
      "type": "Feature",
      "properties": {
        "norad_id": 66515,
        "name": "SZ-21 MODULE",
        "group": "stations",
        "lat": -31.855446285904378,
        "lon": -98.40089158792976,
        "alt_km": 379.7211081459154,
        "timestamp": "2025-12-09T07:41:31.989777+00:00",
        "meta_object_name": "SZ-21 MODULE",
        "meta_object_id": "2025-246C",
        "meta_epoch": "2025-12-08T12:17:19.006656",
        "meta_mean_motion": 15.62178331,
        "meta_eccentricity": 0.00062383,
        "meta_inclination": 41.4773,
        "meta_ra_of_asc_node": 41.8306,
        "meta_arg_of_pericenter": 236.9164,
        "meta_mean_anomaly": 123.1077,
        "meta_ephemeris_type": 0,
        "meta_classification_type": "U",
        "meta_norad_cat_id": 66515,
        "meta_element_set_no": 999,
        "meta_rev_at_epoch": 378,
        "meta_bstar": 0.00033876447,
        "meta_mean_motion_dot": 0.00030446,
        "meta_mean_motion_ddot": 0,
        "tle_line1": "1 66515U 25246C   25342.51202554  .00030446  00000+0  33876-3 0  9998",
        "tle_line2": "2 66515  41.4773  41.8306 0006238 236.9164 123.1077 15.62178331  3789"
      },
      "geometry": {
        "type": "Point",
        "coordinates": [
          -98.40089158792976,
          -31.855446285904378
        ]
      }
    },
    {
      "type": "Feature",
      "properties": {
        "norad_id": 66645,
        "name": "SHENZHOU-22",
        "group": "stations",
        "lat": 3.335071536765812,
        "lon": 41.2451084546303,
        "alt_km": 383.6957793694737,
        "timestamp": "2025-12-09T07:41:31.989787+00:00",
        "meta_object_name": "SHENZHOU-22",
        "meta_object_id": "2025-272A",
        "meta_epoch": "2025-12-08T14:45:28.776096",
        "meta_mean_motion": 15.58905517,
        "meta_eccentricity": 0.00091311,
        "meta_inclination": 41.4682,
        "meta_ra_of_asc_node": 41.7451,
        "meta_arg_of_pericenter": 357.4459,
        "meta_mean_anomaly": 2.6332,
        "meta_ephemeris_type": 0,
        "meta_classification_type": "U",
        "meta_norad_cat_id": 66645,
        "meta_element_set_no": 999,
        "meta_rev_at_epoch": 26300,
        "meta_bstar": 0.0003572809,
        "meta_mean_motion_dot": 0.0002832,
        "meta_mean_motion_ddot": 0,
        "tle_line1": "1 66645U 25272A   25342.61491639  .00028320  00000+0  35728-3 0  9992",
        "tle_line2": "2 66645  41.4682  41.7451 0009131 357.4459   2.6332 15.58905517263000"
      },
      "geometry": {
        "type": "Point",
        "coordinates": [
          41.2451084546303,
          3.335071536765812
        ]
      }
    },
    {
      "type": "Feature",
      "properties": {
        "norad_id": 66664,
        "name": "SOYUZ-MS 28",
        "group": "stations",
        "lat": 17.963449803803446,
        "lon": 174.292895965782,
        "alt_km": 418.6407565218451,
        "timestamp": "2025-12-09T07:41:31.989804+00:00",
        "meta_object_name": "SOYUZ-MS 28",
        "meta_object_id": "2025-275A",
        "meta_epoch": "2025-12-08T20:45:25.501536",
        "meta_mean_motion": 15.49428834,
        "meta_eccentricity": 0.00033811,
        "meta_inclination": 51.6308,
        "meta_ra_of_asc_node": 161.6653,
        "meta_arg_of_pericenter": 221.9847,
        "meta_mean_anomaly": 138.0883,
        "meta_ephemeris_type": 0,
        "meta_classification_type": "U",
        "meta_norad_cat_id": 66664,
        "meta_element_set_no": 999,
        "meta_rev_at_epoch": 128,
        "meta_bstar": 0.00022803662,
        "meta_mean_motion_dot": 0.00012323,
        "meta_mean_motion_ddot": 0,
        "tle_line1": "1 66664U 25275A   25342.86487849  .00012323  00000+0  22804-3 0  9998",
        "tle_line2": "2 66664  51.6308 161.6653 0003381 221.9847 138.0883 15.49428834  1289"
      },
      "geometry": {
        "type": "Point",
        "coordinates": [
          174.292895965782,
          17.963449803803446
        ]
      }
    },
    {
      "type": "Feature",
      "properties": {
        "norad_id": 66906,
        "name": "1998-067XS",
        "group": "stations",
        "lat": 31.022073169721942,
        "lon": -172.17221072613154,
        "alt_km": 414.14502338193233,
        "timestamp": "2025-12-09T07:41:31.989815+00:00",
        "meta_object_name": "1998-067XS",
        "meta_object_id": "1998-067XS",
        "meta_epoch": "2025-12-08T22:13:59.029824",
        "meta_mean_motion": 15.50272351,
        "meta_eccentricity": 0.00040207,
        "meta_inclination": 51.6297,
        "meta_ra_of_asc_node": 161.3264,
        "meta_arg_of_pericenter": 185.5281,
        "meta_mean_anomaly": 174.5664,
        "meta_ephemeris_type": 0,
        "meta_classification_type": "U",
        "meta_norad_cat_id": 66906,
        "meta_element_set_no": 999,
        "meta_rev_at_epoch": 102,
        "meta_bstar": 0.00053799922,
        "meta_mean_motion_dot": 0.0003067,
        "meta_mean_motion_ddot": 0,
        "tle_line1": "1 66906U 98067XS  25342.92637766  .00030670  00000+0  53800-3 0  9993",
        "tle_line2": "2 66906  51.6297 161.3264 0004020 185.5281 174.5664 15.50272351  1025"
      },
      "geometry": {
        "type": "Point",
        "coordinates": [
          -172.17221072613154,
          31.022073169721942
        ]
      }
    },
    {
      "type": "Feature",
      "properties": {
        "norad_id": 66907,
        "name": "1998-067XT",
        "group": "stations",
        "lat": 35.40757345399406,
        "lon": -166.36400911134348,
        "alt_km": 412.735395515092,
        "timestamp": "2025-12-09T07:41:31.989826+00:00",
        "meta_object_name": "1998-067XT",
        "meta_object_id": "1998-067XT",
        "meta_epoch": "2025-12-08T19:06:53.694720",
        "meta_mean_motion": 15.50762002,
        "meta_eccentricity": 0.00049716,
        "meta_inclination": 51.6302,
        "meta_ra_of_asc_node": 161.9586,
        "meta_arg_of_pericenter": 204.3216,
        "meta_mean_anomaly": 155.7539,
        "meta_ephemeris_type": 0,
        "meta_classification_type": "U",
        "meta_norad_cat_id": 66907,
        "meta_element_set_no": 999,
        "meta_rev_at_epoch": 100,
        "meta_bstar": 0.0012614232,
        "meta_mean_motion_dot": 0.00074227,
        "meta_mean_motion_ddot": 0,
        "tle_line1": "1 66907U 98067XT  25342.79645480  .00074227  00000+0  12614-2 0  9994",
        "tle_line2": "2 66907  51.6302 161.9586 0004971 204.3216 155.7539 15.50762002  1006"
      },
      "geometry": {
        "type": "Point",
        "coordinates": [
          -166.36400911134348,
          35.40757345399406
        ]
      }
    }
  ]
}